BANDWAGON-2 OBJECT D    
1 62380U 24247D   26068.52261193  .00011259  00000+0  40119-3 0  9994
2 62380  44.9954 115.6710 0003488 351.1453   8.9368 15.29076102 67732
STARLINK-33620          
1 63069U 25035T   26068.19638544  .00035094  00000+0  12783-2 0  9994
2 63069  43.0016 149.9253 0002195 276.6389  83.4213 15.27589414 59642
